[{"OBJECT_NAME":"SHIYAN-10 01 (SY-10 01)","OBJECT_ID":"2021-087A","EPOCH":"2026-03-19T16:11:52.719072","MEAN_MOTION":2.00646871,"ECCENTRICITY":0.69680805,"INCLINATION":63.1045,"RA_OF_ASC_NODE":230.4083,"ARG_OF_PERICENTER":269.9215,"MEAN_ANOMALY":17.1698,"EPHEMERIS_TYPE":0,"CLASSIFICATION_TYPE":"U","NORAD_CAT_ID":49258,"ELEMENT_SET_NO":999,"REV_AT_EPOCH":3273,"BSTAR":0,"MEAN_MOTION_DOT":7.29e-6,"MEAN_MOTION_DDOT":0},{"OBJECT_NAME":"SHIJIAN-21 (SJ-21)","OBJECT_ID":"2021-094A","EPOCH":"2026-03-28T18:04:42.809664","MEAN_MOTION":1.00275939,"ECCENTRICITY":0.0047931,"INCLINATION":4.9239,"RA_OF_ASC_NODE":61.6263,"ARG_OF_PERICENTER":170.2112,"MEAN_ANOMALY":353.4248,"EPHEMERIS_TYPE":0,"CLASSIFICATION_TYPE":"U","NORAD_CAT_ID":49330,"ELEMENT_SET_NO":999,"REV_AT_EPOCH":455,"BSTAR":0,"MEAN_MOTION_DOT":-3.63e-6,"MEAN_MOTION_DDOT":0},{"OBJECT_NAME":"SES-17","OBJECT_ID":"2021-095A","EPOCH":"2026-03-28T19:36:00.815040","MEAN_MOTION":1.00269313,"ECCENTRICITY":0.0001029,"INCLINATION":0.0439,"RA_OF_ASC_NODE":26.2593,"ARG_OF_PERICENTER":331.1484,"MEAN_ANOMALY":55.7066,"EPHEMERIS_TYPE":0,"CLASSIFICATION_TYPE":"U","NORAD_CAT_ID":49332,"ELEMENT_SET_NO":999,"REV_AT_EPOCH":1704,"BSTAR":0,"MEAN_MOTION_DOT":-2.92e-6,"MEAN_MOTION_DDOT":0},{"OBJECT_NAME":"SYRACUSE 4A","OBJECT_ID":"2021-095B","EPOCH":"2026-03-28T20:08:10.082112","MEAN_MOTION":1.00269838,"ECCENTRICITY":0.0001605,"INCLINATION":0.0221,"RA_OF_ASC_NODE":189.769,"ARG_OF_PERICENTER":180.1431,"MEAN_ANOMALY":163.8852,"EPHEMERIS_TYPE":0,"CLASSIFICATION_TYPE":"U","NORAD_CAT_ID":49333,"ELEMENT_SET_NO":999,"REV_AT_EPOCH":1714,"BSTAR":0,"MEAN_MOTION_DOT":0,"MEAN_MOTION_DDOT":0},{"OBJECT_NAME":"QZS-1R (MICHIBIKI-1R)","OBJECT_ID":"2021-096A","EPOCH":"2026-03-28T20:31:17.592672","MEAN_MOTION":1.0028248,"ECCENTRICITY":0.0749326,"INCLINATION":37.2973,"RA_OF_ASC_NODE":80.7659,"ARG_OF_PERICENTER":270.2513,"MEAN_ANOMALY":278.3326,"EPHEMERIS_TYPE":0,"CLASSIFICATION_TYPE":"U","NORAD_CAT_ID":49336,"ELEMENT_SET_NO":999,"REV_AT_EPOCH":1620,"BSTAR":0,"MEAN_MOTION_DOT":-2.31e-6,"MEAN_MOTION_DDOT":0},{"OBJECT_NAME":"ATLAS 5 CENTAUR DEB","OBJECT_ID":"2018-079ER","EPOCH":"2026-03-26T19:39:33.019488","MEAN_MOTION":1.76317406,"ECCENTRICITY":0.4771684,"INCLINATION":13.6591,"RA_OF_ASC_NODE":44.8154,"ARG_OF_PERICENTER":287.3447,"MEAN_ANOMALY":27.2383,"EPHEMERIS_TYPE":0,"CLASSIFICATION_TYPE":"U","NORAD_CAT_ID":49340,"ELEMENT_SET_NO":999,"REV_AT_EPOCH":2945,"BSTAR":0,"MEAN_MOTION_DOT":-1.45e-6,"MEAN_MOTION_DDOT":0},{"OBJECT_NAME":"ATLAS 5 CENTAUR DEB","OBJECT_ID":"2018-079ES","EPOCH":"2026-03-28T16:14:54.596256","MEAN_MOTION":1.75091685,"ECCENTRICITY":0.465069,"INCLINATION":13.6088,"RA_OF_ASC_NODE":53.6606,"ARG_OF_PERICENTER":267.7359,"MEAN_ANOMALY":40.3891,"EPHEMERIS_TYPE":0,"CLASSIFICATION_TYPE":"U","NORAD_CAT_ID":49341,"ELEMENT_SET_NO":999,"REV_AT_EPOCH":2929,"BSTAR":0,"MEAN_MOTION_DOT":-1.14e-6,"MEAN_MOTION_DDOT":0},{"OBJECT_NAME":"ATLAS 5 CENTAUR DEB","OBJECT_ID":"2018-079EU","EPOCH":"2026-03-28T19:33:14.572800","MEAN_MOTION":1.74623918,"ECCENTRICITY":0.4581184,"INCLINATION":12.8572,"RA_OF_ASC_NODE":66.7594,"ARG_OF_PERICENTER":251.8039,"MEAN_ANOMALY":54.4316,"EPHEMERIS_TYPE":0,"CLASSIFICATION_TYPE":"U","NORAD_CAT_ID":49343,"ELEMENT_SET_NO":999,"REV_AT_EPOCH":2922,"BSTAR":0,"MEAN_MOTION_DOT":-1.03e-6,"MEAN_MOTION_DDOT":0},{"OBJECT_NAME":"ATLAS 5 CENTAUR DEB","OBJECT_ID":"2018-079FC","EPOCH":"2026-03-25T00:44:00.646656","MEAN_MOTION":1.72150883,"ECCENTRICITY":0.46564923,"INCLINATION":13.1846,"RA_OF_ASC_NODE":65.3757,"ARG_OF_PERICENTER":247.455,"MEAN_ANOMALY":57.8014,"EPHEMERIS_TYPE":0,"CLASSIFICATION_TYPE":"U","NORAD_CAT_ID":49351,"ELEMENT_SET_NO":999,"REV_AT_EPOCH":2875,"BSTAR":0,"MEAN_MOTION_DOT":-1.05e-6,"MEAN_MOTION_DDOT":0},{"OBJECT_NAME":"ATLAS 5 CENTAUR DEB","OBJECT_ID":"2018-079FD","EPOCH":"2026-03-22T09:09:11.600064","MEAN_MOTION":1.6833193,"ECCENTRICITY":0.46030504,"INCLINATION":12.3049,"RA_OF_ASC_NODE":85.3056,"ARG_OF_PERICENTER":215.4891,"MEAN_ANOMALY":102.8613,"EPHEMERIS_TYPE":0,"CLASSIFICATION_TYPE":"U","NORAD_CAT_ID":49352,"ELEMENT_SET_NO":999,"REV_AT_EPOCH":2805,"BSTAR":0,"MEAN_MOTION_DOT":-6.6e-7,"MEAN_MOTION_DDOT":0},{"OBJECT_NAME":"ATLAS 5 CENTAUR DEB","OBJECT_ID":"2018-079FH","EPOCH":"2026-03-27T02:06:31.798656","MEAN_MOTION":1.78468596,"ECCENTRICITY":0.4648282,"INCLINATION":13.2272,"RA_OF_ASC_NODE":51.3378,"ARG_OF_PERICENTER":280.4717,"MEAN_ANOMALY":32.076,"EPHEMERIS_TYPE":0,"CLASSIFICATION_TYPE":"U","NORAD_CAT_ID":49356,"ELEMENT_SET_NO":999,"REV_AT_EPOCH":2982,"BSTAR":0,"MEAN_MOTION_DOT":-1.38e-6,"MEAN_MOTION_DDOT":0},{"OBJECT_NAME":"ATLAS 5 CENTAUR DEB","OBJECT_ID":"2018-079FP","EPOCH":"2026-03-17T13:38:51.806688","MEAN_MOTION":1.75762281,"ECCENTRICITY":0.48534022,"INCLINATION":13.4521,"RA_OF_ASC_NODE":47.2365,"ARG_OF_PERICENTER":285.8521,"MEAN_ANOMALY":27.3634,"EPHEMERIS_TYPE":0,"CLASSIFICATION_TYPE":"U","NORAD_CAT_ID":49362,"ELEMENT_SET_NO":999,"REV_AT_EPOCH":2919,"BSTAR":0,"MEAN_MOTION_DOT":-1.21e-6,"MEAN_MOTION_DDOT":0},{"OBJECT_NAME":"ATLAS 5 CENTAUR DEB","OBJECT_ID":"2018-079FT","EPOCH":"2026-03-26T21:39:28.408032","MEAN_MOTION":1.65077318,"ECCENTRICITY":0.5203217,"INCLINATION":14.2419,"RA_OF_ASC_NODE":47.3491,"ARG_OF_PERICENTER":275.4592,"MEAN_ANOMALY":30.0507,"EPHEMERIS_TYPE":0,"CLASSIFICATION_TYPE":"U","NORAD_CAT_ID":49366,"ELEMENT_SET_NO":999,"REV_AT_EPOCH":2801,"BSTAR":0,"MEAN_MOTION_DOT":-1.43e-6,"MEAN_MOTION_DDOT":0},{"OBJECT_NAME":"FREGAT R/B","OBJECT_ID":"2021-113B","EPOCH":"2026-03-18T11:11:28.929120","MEAN_MOTION":2.01638467,"ECCENTRICITY":0.65126928,"INCLINATION":63.3604,"RA_OF_ASC_NODE":215.6469,"ARG_OF_PERICENTER":266.8145,"MEAN_ANOMALY":22.4689,"EPHEMERIS_TYPE":0,"CLASSIFICATION_TYPE":"U","NORAD_CAT_ID":49504,"ELEMENT_SET_NO":999,"REV_AT_EPOCH":3173,"BSTAR":0,"MEAN_MOTION_DOT":4.21e-6,"MEAN_MOTION_DDOT":0},{"OBJECT_NAME":"ZHONGXING-1D","OBJECT_ID":"2021-114A","EPOCH":"2026-03-28T20:32:17.498112","MEAN_MOTION":1.00273454,"ECCENTRICITY":0.0002241,"INCLINATION":0.0504,"RA_OF_ASC_NODE":296.1042,"ARG_OF_PERICENTER":297.5547,"MEAN_ANOMALY":30.8184,"EPHEMERIS_TYPE":0,"CLASSIFICATION_TYPE":"U","NORAD_CAT_ID":49505,"ELEMENT_SET_NO":999,"REV_AT_EPOCH":1601,"BSTAR":0,"MEAN_MOTION_DOT":-3.56e-6,"MEAN_MOTION_DDOT":0},{"OBJECT_NAME":"STPSAT-6","OBJECT_ID":"2021-118A","EPOCH":"2026-03-28T16:22:38.584128","MEAN_MOTION":1.00271935,"ECCENTRICITY":0.0002413,"INCLINATION":0.115,"RA_OF_ASC_NODE":84.6021,"ARG_OF_PERICENTER":242.4509,"MEAN_ANOMALY":352.8195,"EPHEMERIS_TYPE":0,"CLASSIFICATION_TYPE":"U","NORAD_CAT_ID":49817,"ELEMENT_SET_NO":999,"REV_AT_EPOCH":1576,"BSTAR":0,"MEAN_MOTION_DOT":-6.4e-7,"MEAN_MOTION_DDOT":0},{"OBJECT_NAME":"SATCOM 3 DEB","OBJECT_ID":"1979-101AD","EPOCH":"2026-03-27T14:00:01.200672","MEAN_MOTION":1.80684741,"ECCENTRICITY":0.4755318,"INCLINATION":7.2182,"RA_OF_ASC_NODE":129.5604,"ARG_OF_PERICENTER":24.5592,"MEAN_ANOMALY":72.3262,"EPHEMERIS_TYPE":0,"CLASSIFICATION_TYPE":"U","NORAD_CAT_ID":49959,"ELEMENT_SET_NO":999,"REV_AT_EPOCH":8159,"BSTAR":0,"MEAN_MOTION_DOT":-1.57e-6,"MEAN_MOTION_DDOT":0}]
