SHIYAN-10 01 (SY-10 01) 
1 49258U 21087A   26078.67491573  .00000729  00000+0  00000+0 0  9997
2 49258  63.1045 230.4083 6968080 269.9215  17.1698  2.00646871 32731
SHIJIAN-21 (SJ-21)      
1 49330U 21094A   26087.75327326 -.00000363  00000+0  00000+0 0  9994
2 49330   4.9239  61.6263 0047931 170.2112 353.4248  1.00275939  4559
SES-17                  
1 49332U 21095A   26087.81667610 -.00000292  00000+0  00000+0 0  9998
2 49332   0.0439  26.2593 0001029 331.1484  55.7066  1.00269313 17048
SYRACUSE 4A             
1 49333U 21095B   26087.83900558  .00000000  00000+0  00000+0 0  9998
2 49333   0.0221 189.7690 0001605 180.1431 163.8852  1.00269838 17142
QZS-1R (MICHIBIKI-1R)   
1 49336U 21096A   26087.85506473 -.00000231  00000+0  00000+0 0  9999
2 49336  37.2973  80.7659 0749326 270.2513 278.3326  1.00282480 16209
ATLAS 5 CENTAUR DEB     
1 49340U 18079ER  26085.81913217 -.00000145  00000+0  00000+0 0  9997
2 49340  13.6591  44.8154 4771684 287.3447  27.2383  1.76317406 29455
ATLAS 5 CENTAUR DEB     
1 49341U 18079ES  26087.67702079 -.00000114  00000+0  00000+0 0  9992
2 49341  13.6088  53.6606 4650690 267.7359  40.3891  1.75091685 29293
ATLAS 5 CENTAUR DEB     
1 49343U 18079EU  26087.81475200 -.00000103  00000+0  00000+0 0  9991
2 49343  12.8572  66.7594 4581184 251.8039  54.4316  1.74623918 29225
ATLAS 5 CENTAUR DEB     
1 49351U 18079FC  26084.03056304 -.00000105  00000+0  00000+0 0  9993
2 49351  13.1846  65.3757 4656492 247.4550  57.8014  1.72150883 28755
ATLAS 5 CENTAUR DEB     
1 49352U 18079FD  26081.38138426 -.00000066  00000+0  00000+0 0  9991
2 49352  12.3049  85.3056 4603050 215.4891 102.8613  1.68331930 28059
ATLAS 5 CENTAUR DEB     
1 49356U 18079FH  26086.08786804 -.00000138  00000+0  00000+0 0  9996
2 49356  13.2272  51.3378 4648282 280.4717  32.0760  1.78468596 29829
ATLAS 5 CENTAUR DEB     
1 49362U 18079FP  26076.56865517 -.00000121  00000+0  00000+0 0  9996
2 49362  13.4521  47.2365 4853402 285.8521  27.3634  1.75762281 29191
ATLAS 5 CENTAUR DEB     
1 49366U 18079FT  26085.90241213 -.00000143  00000+0  00000+0 0  9993
2 49366  14.2419  47.3491 5203217 275.4592  30.0507  1.65077318 28017
FREGAT R/B              
1 49504U 21113B   26077.46630705  .00000421  00000+0  00000+0 0  9998
2 49504  63.3604 215.6469 6512692 266.8145  22.4689  2.01638467 31734
ZHONGXING-1D            
1 49505U 21114A   26087.85575808 -.00000356  00000+0  00000+0 0  9994
2 49505   0.0504 296.1042 0002241 297.5547  30.8184  1.00273454 16014
STPSAT-6                
1 49817U 21118A   26087.68239102 -.00000064  00000+0  00000+0 0  9995
2 49817   0.1150  84.6021 0002413 242.4509 352.8195  1.00271935 15765
SATCOM 3 DEB            
1 49959U 79101AD  26086.58334723 -.00000157  00000+0  00000+0 0  9993
2 49959   7.2182 129.5604 4755318  24.5592  72.3262  1.80684741 81599
